NORAD_CAT_ID,OBJECT_NAME,OBJECT_TYPE,EPOCH,MEAN_MOTION,ECCENTRICITY,INCLINATION,RA_OF_ASC_NODE,ARG_OF_PERICENTER,MEAN_ANOMALY,BSTAR,MEAN_MOTION_DOT,MEAN_MOTION_DDOT,TLE_LINE0,TLE_LINE1,TLE_LINE2,SEMIMAJOR_AXIS,PERIOD,APOGEE,PERIGEE,DECAYED
52839.0,STARLINK-4048,PAYLOAD,2024-04-19 09:05:14,15.08855698,0.0001376,53.2163,248.5592,72.7395,287.3747,0.00071736,0.00011152,0.0,0 STARLINK-4048,1 52839U 22062K   24110.37864520  .00011152  00000-0  71736-3 0  9999,2 52839  53.2163 248.5592 0001376  72.7395 287.3747 15.08855698102213,6917.832,95.437,540.649,538.746,0.0
52839.0,STARLINK-4048,PAYLOAD,2024-04-19 13:51:24,15.08864165,0.0001318,53.2163,247.6659,68.9248,291.1884,0.0010031,0.00015723,0.0,0 STARLINK-4048,1 52839U 22062K   24110.57736331  .00015723  00000-0  10031-2 0  9997,2 52839  53.2163 247.6659 0001318  68.9248 291.1884 15.08864165101759,6917.807,95.436,540.583,538.76,0.0
52839.0,STARLINK-4048,PAYLOAD,2024-04-19 15:26:47,15.08871984,0.0001525,53.2166,247.368,68.899,291.2165,0.0012821,0.00020193,0.0,0 STARLINK-4048,1 52839U 22062K   24110.64360225  .00020193  00000-0  12821-2 0  9996,2 52839  53.2166 247.3680 0001525  68.8990 291.2165 15.08871984101767,6917.783,95.436,540.703,538.593,0.0
52839.0,STARLINK-4048,PAYLOAD,2024-04-20 12:06:48,15.08857367,0.0001544,53.2174,243.5005,84.2281,275.8887,0.0014432,0.00022766,0.0,0 STARLINK-4048,1 52839U 22062K   24111.50472438  .00022766  00000-0  14432-2 0  9990,2 52839  53.2174 243.5005 0001544  84.2281 275.8887 15.08857367102388,6917.827,95.436,540.76,538.624,0.0
52839.0,STARLINK-4048,PAYLOAD,2024-04-20 13:42:11,15.08853429,0.0001639,53.2177,243.2042,105.8757,254.2416,0.0011727,0.00018432,0.0,0 STARLINK-4048,1 52839U 22062K   24111.57096300  .00018432  00000-0  11727-2 0  9996,2 52839  53.2177 243.2042 0001639 105.8757 254.2416 15.08853429101903,6917.839,95.437,540.838,538.571,0.0
52839.0,STARLINK-4048,PAYLOAD,2024-04-20 15:17:34,15.08858421,0.0001723,53.2172,242.9055,108.6956,251.4223,0.0012462,0.00019611,0.0,0 STARLINK-4048,1 52839U 22062K   24111.63720168  .00019611  00000-0  12462-2 0  9996,2 52839  53.2172 242.9055 0001723 108.6956 251.4223 15.08858421101917,6917.824,95.436,540.881,538.497,0.0
52839.0,STARLINK-4048,PAYLOAD,2024-04-21 13:32:58,15.08846008,0.0001936,53.2175,238.7421,108.4728,251.6474,0.0012826,0.00020187,0.0,0 STARLINK-4048,1 52839U 22062K   24112.56456829  .00020187  00000-0  12826-2 0  9993,2 52839  53.2175 238.7421 0001936 108.4728 251.6474 15.08846008102055,6917.862,95.437,541.066,538.388,0.0
52839.0,STARLINK-4048,PAYLOAD,2024-04-21 18:19:07,15.08853939,0.0001856,53.2173,237.8496,104.4487,255.6711,0.0012579,0.00019796,0.0,0 STARLINK-4048,1 52839U 22062K   24112.76328672  .00019796  00000-0  12579-2 0  9998,2 52839  53.2173 237.8496 0001856 104.4487 255.6711 15.08853939102086,6917.838,95.437,540.987,538.419,0.0
52839.0,STARLINK-4048,PAYLOAD,2024-04-22 08:37:36,15.08839143,0.000185,53.2171,235.1654,105.1667,254.9529,0.0012379,0.00019468,0.0,0 STARLINK-4048,1 52839U 22062K   24113.35945018  .00019468  00000-0  12379-2 0  9997,2 52839  53.2171 235.1654 0001850 105.1667 254.9529 15.08839143102667,6917.883,95.438,541.028,538.468,0.0
52839.0,STARLINK-4048,PAYLOAD,2024-04-22 13:23:45,15.08848683,0.0002053,53.2175,234.2748,104.9462,255.1758,0.0012482,0.00019638,0.0,0 STARLINK-4048,1 52839U 22062K   24113.55816844  .00019638  00000-0  12482-2 0  9997,2 52839  53.2175 234.2748 0002053 104.9462 255.1758 15.08848683102207,6917.854,95.437,541.139,538.299,0.0
52839.0,STARLINK-4048,PAYLOAD,2024-04-23 13:14:32,15.08844854,0.0001706,53.2175,229.821,104.1998,255.9184,0.00074779,0.00011635,0.0,0 STARLINK-4048,1 52839U 22062K   24114.55177053  .00011635  00000-0  74779-3 0  9997,2 52839  53.2175 229.8210 0001706 104.1998 255.9184 15.08844854102848,6917.866,95.437,540.911,538.55,0.0
52839.0,STARLINK-4048,PAYLOAD,2024-04-24 13:05:20,15.08835412,0.0001852,53.2181,225.365,109.9099,250.2093,0.00049337,7.572e-05,0.0,0 STARLINK-4048,1 52839U 22062K   24115.54537718  .00007572  00000-0  49337-3 0  9992,2 52839  53.2181 225.3650 0001852 109.9099 250.2093 15.08835412102994,6917.894,95.438,541.041,538.478,0.0
52839.0,STARLINK-4048,PAYLOAD,2024-04-24 14:40:43,15.08841688,0.0001841,53.218,225.0662,64.3658,295.7524,0.00059271,9.158e-05,0.0,0 STARLINK-4048,1 52839U 22062K   24115.61161889  .00009158  00000-0  59271-3 0  9992,2 52839  53.2180 225.0662 0001841  64.3658 295.7524 15.08841688102519,6917.875,95.437,541.014,538.467,0.0
52839.0,STARLINK-4048,PAYLOAD,2024-04-25 12:56:07,15.08842025,0.0001941,53.2179,220.9027,53.9457,306.1715,0.00017623,2.518e-05,0.0,0 STARLINK-4048,1 52839U 22062K   24116.53897989  .00002518  00000-0  17623-3 0  9999,2 52839  53.2179 220.9027 0001941  53.9457 306.1715 15.08842025103143,6917.874,95.437,541.082,538.396,0.0
52839.0,STARLINK-4048,PAYLOAD,2024-04-25 14:31:30,15.08843935,0.0001654,53.2182,220.6052,64.7105,295.4058,0.00035264,5.329e-05,0.0,0 STARLINK-4048,1 52839U 22062K   24116.60521704  .00005329  00000-0  35264-3 0  9990,2 52839  53.2182 220.6052 0001654  64.7105 295.4058 15.08843935102660,6917.868,95.437,540.878,538.589,0.0
52839.0,STARLINK-4048,PAYLOAD,2024-04-26 12:46:54,15.08842062,0.0001768,53.2158,216.4474,62.7947,297.3225,0.00022563,3.305e-05,0.0,0 STARLINK-4048,1 52839U 22062K   24117.53257987  .00003305  00000-0  22563-3 0  9992,2 52839  53.2158 216.4474 0001768  62.7947 297.3225 15.08842062102805,6917.874,95.437,540.962,538.516,0.0
52839.0,STARLINK-4048,PAYLOAD,2024-04-27 12:37:40,15.0887002,0.000161,53.215,211.9805,103.8291,256.288,0.00061859,9.579e-05,0.0,0 STARLINK-4048,1 52839U 22062K   24118.52616324  .00009579  00000-0  61859-3 0  9996,2 52839  53.2150 211.9805 0001610 103.8291 256.2880 15.08870020103447,6917.789,95.436,540.767,538.54,0.0
52839.0,STARLINK-4048,PAYLOAD,2024-04-27 15:48:26,15.08878096,0.0001763,53.217,211.3823,106.0412,254.0774,0.00091477,0.00014316,0.0,0 STARLINK-4048,1 52839U 22062K   24118.65863853  .00014316  00000-0  91477-3 0  9995,2 52839  53.2170 211.3823 0001763 106.0412 254.0774 15.08878096102978,6917.764,95.435,540.849,538.409,0.0
52839.0,STARLINK-4048,PAYLOAD,2024-04-28 12:28:28,15.08828281,0.0001673,53.2169,207.5222,81.0612,279.057,-0.00037193,-6.201e-05,0.0,0 STARLINK-4048,1 52839U 22062K   24119.51977328 -.00006201  00000-0 -37193-3 0  9995,2 52839  53.2169 207.5222 0001673  81.0612 279.0570 15.08828281103591,6917.916,95.438,540.939,538.624,0.0
52839.0,STARLINK-4048,PAYLOAD,2024-04-29 05:57:42,15.08841628,0.0001585,53.2171,204.2511,77.4275,282.6895,0.00023353,3.431e-05,0.0,0 STARLINK-4048,1 52839U 22062K   24120.24841248  .00003431  00000-0  23353-3 0  9991,2 52839  53.2171 204.2511 0001585  77.4275 282.6895 15.08841628103708,6917.875,95.437,540.837,538.644,0.0
52839.0,STARLINK-4048,PAYLOAD,2024-04-29 12:19:15,15.08861909,0.0001584,53.2165,203.0619,73.4507,286.6659,0.0011849,0.00018631,0.0,0 STARLINK-4048,1 52839U 22062K   24120.51337009  .00018631  00000-0  11849-2 0  9990,2 52839  53.2165 203.0619 0001584  73.4507 286.6659 15.08861909103740,6917.813,95.436,540.774,538.583,0.0
52839.0,STARLINK-4048,PAYLOAD,2024-04-30 05:48:29,15.0885129,0.0001673,53.2164,199.7912,68.2067,291.9103,0.00035215,5.323e-05,0.0,0 STARLINK-4048,1 52839U 22062K   24121.24201025  .00005323  00000-0  35215-3 0  9997,2 52839  53.2164 199.7912 0001673  68.2067 291.9103 15.08851290103855,6917.846,95.437,540.868,538.554,0.0
52839.0,STARLINK-4048,PAYLOAD,2024-04-30 12:10:01,15.0885281,0.0001411,53.216,198.6009,77.7332,282.3818,0.00045801,7.011e-05,0.0,0 STARLINK-4048,1 52839U 22062K   24121.50696739  .00007011  00000-0  45801-3 0  9994,2 52839  53.2160 198.6009 0001411  77.7332 282.3818 15.08852810103403,6917.841,95.437,540.682,538.73,0.0
52839.0,STARLINK-4048,PAYLOAD,2024-04-30 21:42:21,15.088375,0.0001273,53.2148,196.8187,79.8362,280.2773,0.00057312,8.844e-05,0.0,0 STARLINK-4048,1 52839U 22062K   24121.90441211  .00008844  00000-0  57312-3 0  9996,2 52839  53.2148 196.8187 0001273  79.8362 280.2773 15.08837500103460,6917.888,95.438,540.634,538.872,0.0
52839.0,STARLINK-4048,PAYLOAD,2024-05-01 12:00:49,15.08829139,0.0001457,53.2164,194.1418,85.0491,275.0667,0.00032593,4.902e-05,0.0,0 STARLINK-4048,1 52839U 22062K   24122.50057732  .00004902  00000-0  32593-3 0  9999,2 52839  53.2164 194.1418 0001457  85.0491 275.0667 15.08829139104040,6917.914,95.438,540.787,538.771,0.0
52839.0,STARLINK-4048,PAYLOAD,2024-05-01 21:33:08,15.08834239,0.0001358,53.2152,192.3575,84.1796,275.9351,0.00018473,2.653e-05,0.0,0 STARLINK-4048,1 52839U 22062K   24122.89801812  .00002653  00000-0  18473-3 0  9999,2 52839  53.2152 192.3575 0001358  84.1796 275.9351 15.08834239103617,6917.898,95.438,540.702,538.824,0.0
52839.0,STARLINK-4048,PAYLOAD,2024-05-02 13:27:00,15.08836774,0.000152,53.2153,189.3826,86.3252,273.7914,0.00017811,2.548e-05,0.0,0 STARLINK-4048,1 52839U 22062K   24123.56042104  .00002548  00000-0  17811-3 0  9993,2 52839  53.2153 189.3826 0001520  86.3252 273.7914 15.08836774103713,6917.89,95.438,540.807,538.704,0.0
52839.0,STARLINK-4048,PAYLOAD,2024-05-03 08:31:37,15.08853712,0.0001484,53.2153,185.8145,89.5062,270.61,0.00041597,6.341e-05,0.0,0 STARLINK-4048,1 52839U 22062K   24124.35529380  .00006341  00000-0  41597-3 0  9990,2 52839  53.2153 185.8145 0001484  89.5062 270.6100 15.08853712104323,6917.838,95.437,540.73,538.677,0.0
52839.0,STARLINK-4048,PAYLOAD,2024-05-03 21:14:42,15.08846422,0.0001462,53.2154,183.436,90.3639,269.752,0.00017471,2.494e-05,0.0,0 STARLINK-4048,1 52839U 22062K   24124.88521423  .00002494  00000-0  17471-3 0  9997,2 52839  53.2154 183.4360 0001462  90.3639 269.7520 15.08846422103912,6917.861,95.437,540.737,538.714,0.0
52839.0,STARLINK-4048,PAYLOAD,2024-05-04 03:36:15,15.0884367,0.0002591,53.2121,182.2466,88.3339,271.7949,0.00012954,1.774e-05,0.0,0 STARLINK-4048,1 52839U 22062K   24125.15017548  .00001774  00000-0  12954-3 0  9997,2 52839  53.2121 182.2466 0002591  88.3339 271.7949 15.08843670104447,6917.869,95.437,541.527,537.942,0.0
